PROBA-1                 
1 26958U 01049B   26094.31879920  .00004026  00000+0  26274-3 0  9999
2 26958  97.9627 100.2801 0055711  14.4783 345.8024 15.07200171332491
CUTE-1 (CO-55)          
1 27844U 03031E   26093.50286751  .00000567  00000+0  26456-3 0  9999
2 27844  98.6770 102.9944 0010387  47.9217 312.2844 14.24288225181048
CUBESAT XI-IV (CO-57)   
1 27848U 03031J   26093.94602893  .00000464  00000+0  22289-3 0  9996
2 27848  98.6802 103.2044 0010511  63.1709 297.0543 14.23580366180818
APRIZESAT 4             
1 35684U 09041D   26094.14663206  .00001555  00000+0  19193-3 0  9990
2 35684  98.1446 167.9887 0042935 200.1027 159.8497 14.83765167900382
APRIZESAT 3             
1 35686U 09041F   26093.92794752  .00002583  00000+0  22777-3 0  9992
2 35686  98.1947 243.6492 0061167 312.9965  46.6138 14.95996298905277
PROBA-2                 
1 36037U 09059B   26094.09946261  .00000438  00000+0  11252-3 0  9998
2 36037  98.2444 278.4796 0013908 145.3283 214.8823 14.54809717870753
APRIZESAT 5             
1 37792U 11044E   26094.22856072  .00001795  00000+0  23449-3 0  9997
2 37792  98.2422  25.1986 0051093 240.2567 119.3555 14.80934513787843
APRIZESAT 6             
1 37793U 11044F   26094.24662611  .00001566  00000+0  22792-3 0  9990
2 37793  98.2401   3.2279 0042442 324.1013 187.7732 14.76813514786239
PROBA-V                 
1 39159U 13021A   26093.89803824  .00000141  00000+0  79921-4 0  9993
2 39159  98.3541  76.1930 0004198   7.2967 352.8273 14.23580926670540
APRIZESAT 7             
1 39416U 13066A   26094.28884967  .00003291  00000+0  33098-3 0  9992
2 39416  97.7643  48.6119 0037582  96.0690 264.4813 14.91377084670213
APRIZESAT 8             
1 39425U 13066K   26093.81371743  .00001941  00000+0  21614-3 0  9994
2 39425  97.8157  42.3592 0046265 168.8272 191.3983 14.87495296668610
BUGSAT-1 (TITA)         
1 40014U 14033E   26094.27064866  .00008511  00000+0  45650-3 0  9997
2 40014  98.0412 182.5520 0029614  74.4580 285.9916 15.14856117644641
SAUDISAT 4              
1 40016U 14033G   26093.92612497  .00001278  00000+0  17546-3 0  9995
2 40016  97.7465 242.6776 0043841 316.3908  43.3841 14.79437508635099
APRIZESAT 9             
1 40018U 14033J   26094.29097768  .00001275  00000+0  19408-3 0  9992
2 40018  97.8934 229.3477 0067557  78.2219 282.6558 14.74130420632674
APRIZESAT 10            
1 40019U 14033K   26094.24739324  .00001384  00000+0  22388-3 0  9991
2 40019  97.9526 222.9095 0079664 149.1060 211.4870 14.70806185631380
TECHDEMOSAT-1 (TDS-1)   
1 40076U 14037H   26093.94059666  .00016664  00000+0  96943-3 0  9993
2 40076  98.3803  78.8794 0007388 145.6458 214.5249 15.12125253637002
