[{"OBJECT_NAME":"PROBA-1","OBJECT_ID":"2001-049B","EPOCH":"2026-04-04T07:39:04.250880","MEAN_MOTION":15.07200171,"ECCENTRICITY":0.00557117,"INCLINATION":97.9627,"RA_OF_ASC_NODE":100.2801,"ARG_OF_PERICENTER":14.4783,"MEAN_ANOMALY":345.8024,"EPHEMERIS_TYPE":0,"CLASSIFICATION_TYPE":"U","NORAD_CAT_ID":26958,"ELEMENT_SET_NO":999,"REV_AT_EPOCH":33249,"BSTAR":0.00026274451,"MEAN_MOTION_DOT":4.026e-5,"MEAN_MOTION_DDOT":0},{"OBJECT_NAME":"CUTE-1 (CO-55)","OBJECT_ID":"2003-031E","EPOCH":"2026-04-03T12:04:07.752864","MEAN_MOTION":14.24288225,"ECCENTRICITY":0.00103879,"INCLINATION":98.677,"RA_OF_ASC_NODE":102.9944,"ARG_OF_PERICENTER":47.9217,"MEAN_ANOMALY":312.2844,"EPHEMERIS_TYPE":0,"CLASSIFICATION_TYPE":"U","NORAD_CAT_ID":27844,"ELEMENT_SET_NO":999,"REV_AT_EPOCH":18104,"BSTAR":0.00026455985,"MEAN_MOTION_DOT":5.67e-6,"MEAN_MOTION_DDOT":0},{"OBJECT_NAME":"CUBESAT XI-IV (CO-57)","OBJECT_ID":"2003-031J","EPOCH":"2026-04-03T22:42:16.899552","MEAN_MOTION":14.23580366,"ECCENTRICITY":0.0010511,"INCLINATION":98.6802,"RA_OF_ASC_NODE":103.2044,"ARG_OF_PERICENTER":63.1709,"MEAN_ANOMALY":297.0543,"EPHEMERIS_TYPE":0,"CLASSIFICATION_TYPE":"U","NORAD_CAT_ID":27848,"ELEMENT_SET_NO":999,"REV_AT_EPOCH":18081,"BSTAR":0.00022289284,"MEAN_MOTION_DOT":4.64e-6,"MEAN_MOTION_DDOT":0},{"OBJECT_NAME":"APRIZESAT 4","OBJECT_ID":"2009-041D","EPOCH":"2026-04-04T03:31:09.009984","MEAN_MOTION":14.83765167,"ECCENTRICITY":0.00429352,"INCLINATION":98.1446,"RA_OF_ASC_NODE":167.9887,"ARG_OF_PERICENTER":200.1027,"MEAN_ANOMALY":159.8497,"EPHEMERIS_TYPE":0,"CLASSIFICATION_TYPE":"U","NORAD_CAT_ID":35684,"ELEMENT_SET_NO":999,"REV_AT_EPOCH":90038,"BSTAR":0.00019193195,"MEAN_MOTION_DOT":1.555e-5,"MEAN_MOTION_DDOT":0},{"OBJECT_NAME":"APRIZESAT 3","OBJECT_ID":"2009-041F","EPOCH":"2026-04-03T22:16:14.665728","MEAN_MOTION":14.95996298,"ECCENTRICITY":0.00611676,"INCLINATION":98.1947,"RA_OF_ASC_NODE":243.6492,"ARG_OF_PERICENTER":312.9965,"MEAN_ANOMALY":46.6138,"EPHEMERIS_TYPE":0,"CLASSIFICATION_TYPE":"U","NORAD_CAT_ID":35686,"ELEMENT_SET_NO":999,"REV_AT_EPOCH":90527,"BSTAR":0.00022776957,"MEAN_MOTION_DOT":2.583e-5,"MEAN_MOTION_DDOT":0},{"OBJECT_NAME":"PROBA-2","OBJECT_ID":"2009-059B","EPOCH":"2026-04-04T02:23:13.569504","MEAN_MOTION":14.54809717,"ECCENTRICITY":0.00139081,"INCLINATION":98.2444,"RA_OF_ASC_NODE":278.4796,"ARG_OF_PERICENTER":145.3283,"MEAN_ANOMALY":214.8823,"EPHEMERIS_TYPE":0,"CLASSIFICATION_TYPE":"U","NORAD_CAT_ID":36037,"ELEMENT_SET_NO":999,"REV_AT_EPOCH":87075,"BSTAR":0.00011251771,"MEAN_MOTION_DOT":4.38e-6,"MEAN_MOTION_DDOT":0},{"OBJECT_NAME":"APRIZESAT 5","OBJECT_ID":"2011-044E","EPOCH":"2026-04-04T05:29:07.646208","MEAN_MOTION":14.80934513,"ECCENTRICITY":0.00510937,"INCLINATION":98.2422,"RA_OF_ASC_NODE":25.1986,"ARG_OF_PERICENTER":240.2567,"MEAN_ANOMALY":119.3555,"EPHEMERIS_TYPE":0,"CLASSIFICATION_TYPE":"U","NORAD_CAT_ID":37792,"ELEMENT_SET_NO":999,"REV_AT_EPOCH":78784,"BSTAR":0.00023448798,"MEAN_MOTION_DOT":1.795e-5,"MEAN_MOTION_DDOT":0},{"OBJECT_NAME":"APRIZESAT 6","OBJECT_ID":"2011-044F","EPOCH":"2026-04-04T05:55:08.495904","MEAN_MOTION":14.76813514,"ECCENTRICITY":0.00424428,"INCLINATION":98.2401,"RA_OF_ASC_NODE":3.2279,"ARG_OF_PERICENTER":324.1013,"MEAN_ANOMALY":187.7732,"EPHEMERIS_TYPE":0,"CLASSIFICATION_TYPE":"U","NORAD_CAT_ID":37793,"ELEMENT_SET_NO":999,"REV_AT_EPOCH":78623,"BSTAR":0.00022792282,"MEAN_MOTION_DOT":1.566e-5,"MEAN_MOTION_DDOT":0},{"OBJECT_NAME":"PROBA-V","OBJECT_ID":"2013-021A","EPOCH":"2026-04-03T21:33:10.503936","MEAN_MOTION":14.23580926,"ECCENTRICITY":0.00041988,"INCLINATION":98.3541,"RA_OF_ASC_NODE":76.193,"ARG_OF_PERICENTER":7.2967,"MEAN_ANOMALY":352.8273,"EPHEMERIS_TYPE":0,"CLASSIFICATION_TYPE":"U","NORAD_CAT_ID":39159,"ELEMENT_SET_NO":999,"REV_AT_EPOCH":67054,"BSTAR":7.9920567e-5,"MEAN_MOTION_DOT":1.41e-6,"MEAN_MOTION_DDOT":0},{"OBJECT_NAME":"APRIZESAT 7","OBJECT_ID":"2013-066A","EPOCH":"2026-04-04T06:55:56.611488","MEAN_MOTION":14.91377084,"ECCENTRICITY":0.00375827,"INCLINATION":97.7643,"RA_OF_ASC_NODE":48.6119,"ARG_OF_PERICENTER":96.069,"MEAN_ANOMALY":264.4813,"EPHEMERIS_TYPE":0,"CLASSIFICATION_TYPE":"U","NORAD_CAT_ID":39416,"ELEMENT_SET_NO":999,"REV_AT_EPOCH":67021,"BSTAR":0.0003309773,"MEAN_MOTION_DOT":3.291e-5,"MEAN_MOTION_DDOT":0},{"OBJECT_NAME":"APRIZESAT 8","OBJECT_ID":"2013-066K","EPOCH":"2026-04-03T19:31:45.185952","MEAN_MOTION":14.87495296,"ECCENTRICITY":0.00462657,"INCLINATION":97.8157,"RA_OF_ASC_NODE":42.3592,"ARG_OF_PERICENTER":168.8272,"MEAN_ANOMALY":191.3983,"EPHEMERIS_TYPE":0,"CLASSIFICATION_TYPE":"U","NORAD_CAT_ID":39425,"ELEMENT_SET_NO":999,"REV_AT_EPOCH":66861,"BSTAR":0.00021613973,"MEAN_MOTION_DOT":1.941e-5,"MEAN_MOTION_DDOT":0},{"OBJECT_NAME":"BUGSAT-1 (TITA)","OBJECT_ID":"2014-033E","EPOCH":"2026-04-04T06:29:44.044224","MEAN_MOTION":15.14856117,"ECCENTRICITY":0.0029614,"INCLINATION":98.0412,"RA_OF_ASC_NODE":182.552,"ARG_OF_PERICENTER":74.458,"MEAN_ANOMALY":285.9916,"EPHEMERIS_TYPE":0,"CLASSIFICATION_TYPE":"U","NORAD_CAT_ID":40014,"ELEMENT_SET_NO":999,"REV_AT_EPOCH":64464,"BSTAR":0.00045649926,"MEAN_MOTION_DOT":8.511e-5,"MEAN_MOTION_DDOT":0},{"OBJECT_NAME":"SAUDISAT 4","OBJECT_ID":"2014-033G","EPOCH":"2026-04-03T22:13:37.197408","MEAN_MOTION":14.79437508,"ECCENTRICITY":0.00438417,"INCLINATION":97.7465,"RA_OF_ASC_NODE":242.6776,"ARG_OF_PERICENTER":316.3908,"MEAN_ANOMALY":43.3841,"EPHEMERIS_TYPE":0,"CLASSIFICATION_TYPE":"U","NORAD_CAT_ID":40016,"ELEMENT_SET_NO":999,"REV_AT_EPOCH":63509,"BSTAR":0.00017545918,"MEAN_MOTION_DOT":1.278e-5,"MEAN_MOTION_DDOT":0},{"OBJECT_NAME":"APRIZESAT 9","OBJECT_ID":"2014-033J","EPOCH":"2026-04-04T06:59:00.471552","MEAN_MOTION":14.7413042,"ECCENTRICITY":0.00675574,"INCLINATION":97.8934,"RA_OF_ASC_NODE":229.3477,"ARG_OF_PERICENTER":78.2219,"MEAN_ANOMALY":282.6558,"EPHEMERIS_TYPE":0,"CLASSIFICATION_TYPE":"U","NORAD_CAT_ID":40018,"ELEMENT_SET_NO":999,"REV_AT_EPOCH":63267,"BSTAR":0.00019407852,"MEAN_MOTION_DOT":1.275e-5,"MEAN_MOTION_DDOT":0},{"OBJECT_NAME":"APRIZESAT 10","OBJECT_ID":"2014-033K","EPOCH":"2026-04-04T05:56:14.775936","MEAN_MOTION":14.70806185,"ECCENTRICITY":0.00796645,"INCLINATION":97.9526,"RA_OF_ASC_NODE":222.9095,"ARG_OF_PERICENTER":149.106,"MEAN_ANOMALY":211.487,"EPHEMERIS_TYPE":0,"CLASSIFICATION_TYPE":"U","NORAD_CAT_ID":40019,"ELEMENT_SET_NO":999,"REV_AT_EPOCH":63138,"BSTAR":0.00022388187,"MEAN_MOTION_DOT":1.384e-5,"MEAN_MOTION_DDOT":0},{"OBJECT_NAME":"TECHDEMOSAT-1 (TDS-1)","OBJECT_ID":"2014-037H","EPOCH":"2026-04-03T22:34:27.551424","MEAN_MOTION":15.12125253,"ECCENTRICITY":0.00073882,"INCLINATION":98.3803,"RA_OF_ASC_NODE":78.8794,"ARG_OF_PERICENTER":145.6458,"MEAN_ANOMALY":214.5249,"EPHEMERIS_TYPE":0,"CLASSIFICATION_TYPE":"U","NORAD_CAT_ID":40076,"ELEMENT_SET_NO":999,"REV_AT_EPOCH":63700,"BSTAR":0.00096942692,"MEAN_MOTION_DOT":0.00016664,"MEAN_MOTION_DDOT":0}]
